ONEWEB-0342             
1 49208U 21083Y   25220.55108309  .00000032  00000+0  47321-4 0  9994
2 49208  87.9287 336.7310 0001906  94.7723 265.3628 13.20772942195517
ONEWEB-0343             
1 49209U 21083Z   25220.52540069  .00000070  00000+0  14571-3 0  9997
2 49209  87.9131  37.5499 0001318  76.9325 283.1954 13.18688358188838
ONEWEB-0344             
1 49210U 21083AA  25220.48699793 -.00000165  00000+0 -48689-3 0  9997
2 49210  87.8972  22.3962 0001374  99.0549 261.0736 13.13470798189842
ONEWEB-0345             
1 49211U 21083AB  25220.40236361 -.00000215  00000+0 -62334-3 0  9997
2 49211  87.8975  22.3651 0001321  99.7962 260.3316 13.13469523189849
ONEWEB-0346             
1 49212U 21083AC  25220.53448083  .00000023  00000+0  26132-4 0  9990
2 49212  87.9132  37.5702 0002139 107.2609 252.8757 13.18686333188773
ONEWEB-0348             
1 49213U 21083AD  25220.61735763  .00000030  00000+0  42998-4 0  9990
2 49213  87.9294 336.7292 0001756 118.0606 242.0705 13.20774054195551
ONEWEB-0350             
1 49214U 21083AE  25220.48784488 -.00000166  00000+0 -48882-3 0  9993
2 49214  87.8977  22.3397 0001499  99.5769 260.5530 13.13469741189886
ONEWEB-0351             
1 49215U 21083AF  25220.61088923  .00000012  00000+0 -28442-5 0  9991
2 49215  87.9301 336.7137 0001707  70.1418 289.9899 13.20769471195512
ONEWEB-0352             
1 49216U 21083AG  25220.46837498 -.00000140  00000+0 -41821-3 0  9991
2 49216  87.8971  22.3843 0001725  78.2543 281.8780 13.13470444189979
ONEWEB-0354             
1 49217U 21083AH  25220.56055368  .00000011  00000+0 -54762-5 0  9997
2 49217  87.9299 336.7226 0001677 105.2724 254.8595 13.20771695195543
ONEWEB-0355             
1 49218U 21083AJ  25220.19257645  .00000053  00000+0  11137-3 0  9991
2 49218  87.8980  22.4393 0001570  89.2579 270.8730 13.13471822189818
ONEWEB-0357             
1 49219U 21083AK  25220.55739864  .00000015  00000+0  48089-5 0  9996
2 49219  87.9290 336.7265 0001759  94.6427 265.4907 13.20772284195541
ONEWEB-0332             
1 49279U 21090A   25220.60287813  .00000175  00000+0  43686-3 0  9991
2 49279  87.9079 351.9249 0001948  90.4932 269.6421 13.14504794186514
ONEWEB-0347             
1 49280U 21090B   25220.62368104  .00000058  00000+0  11005-3 0  9998
2 49280  87.9299 336.7243 0002228  94.4802 265.6586 13.20772399189782
ONEWEB-0349             
1 49281U 21090C   25220.57950334  .00000123  00000+0  27086-3 0  9994
2 49281  87.9289 336.7369 0001811  96.9283 263.2056 13.20771823188560
ONEWEB-0353             
1 49282U 21090D   25220.59495759  .00000236  00000+0  60162-3 0  9999
2 49282  87.9080 351.9134 0002027  92.1395 267.9966 13.14501725186510
ONEWEB-0356             
1 49283U 21090E   25220.57791356  .00000130  00000+0  28690-3 0  9993
2 49283  87.9291 336.7281 0002639 112.7125 247.4287 13.20772121188561
