[{"OBJECT_NAME":"ONEWEB-0342","OBJECT_ID":"2021-083Y","EPOCH":"2025-08-08T13:13:33.578976","MEAN_MOTION":13.20772942,"ECCENTRICITY":0.0001906,"INCLINATION":87.9287,"RA_OF_ASC_NODE":336.731,"ARG_OF_PERICENTER":94.7723,"MEAN_ANOMALY":265.3628,"EPHEMERIS_TYPE":0,"CLASSIFICATION_TYPE":"U","NORAD_CAT_ID":49208,"ELEMENT_SET_NO":999,"REV_AT_EPOCH":19551,"BSTAR":4.7321e-5,"MEAN_MOTION_DOT":3.2e-7,"MEAN_MOTION_DDOT":0},{"OBJECT_NAME":"ONEWEB-0343","OBJECT_ID":"2021-083Z","EPOCH":"2025-08-08T12:36:34.619616","MEAN_MOTION":13.18688358,"ECCENTRICITY":0.0001318,"INCLINATION":87.9131,"RA_OF_ASC_NODE":37.5499,"ARG_OF_PERICENTER":76.9325,"MEAN_ANOMALY":283.1954,"EPHEMERIS_TYPE":0,"CLASSIFICATION_TYPE":"U","NORAD_CAT_ID":49209,"ELEMENT_SET_NO":999,"REV_AT_EPOCH":18883,"BSTAR":0.00014571,"MEAN_MOTION_DOT":7.0e-7,"MEAN_MOTION_DDOT":0},{"OBJECT_NAME":"ONEWEB-0344","OBJECT_ID":"2021-083AA","EPOCH":"2025-08-08T11:41:16.621152","MEAN_MOTION":13.13470798,"ECCENTRICITY":0.0001374,"INCLINATION":87.8972,"RA_OF_ASC_NODE":22.3962,"ARG_OF_PERICENTER":99.0549,"MEAN_ANOMALY":261.0736,"EPHEMERIS_TYPE":0,"CLASSIFICATION_TYPE":"U","NORAD_CAT_ID":49210,"ELEMENT_SET_NO":999,"REV_AT_EPOCH":18984,"BSTAR":-0.00048689,"MEAN_MOTION_DOT":-1.65e-6,"MEAN_MOTION_DDOT":0},{"OBJECT_NAME":"ONEWEB-0345","OBJECT_ID":"2021-083AB","EPOCH":"2025-08-08T09:39:24.215904","MEAN_MOTION":13.13469523,"ECCENTRICITY":0.0001321,"INCLINATION":87.8975,"RA_OF_ASC_NODE":22.3651,"ARG_OF_PERICENTER":99.7962,"MEAN_ANOMALY":260.3316,"EPHEMERIS_TYPE":0,"CLASSIFICATION_TYPE":"U","NORAD_CAT_ID":49211,"ELEMENT_SET_NO":999,"REV_AT_EPOCH":18984,"BSTAR":-0.00062334,"MEAN_MOTION_DOT":-2.15e-6,"MEAN_MOTION_DDOT":0},{"OBJECT_NAME":"ONEWEB-0346","OBJECT_ID":"2021-083AC","EPOCH":"2025-08-08T12:49:39.143712","MEAN_MOTION":13.18686333,"ECCENTRICITY":0.0002139,"INCLINATION":87.9132,"RA_OF_ASC_NODE":37.5702,"ARG_OF_PERICENTER":107.2609,"MEAN_ANOMALY":252.8757,"EPHEMERIS_TYPE":0,"CLASSIFICATION_TYPE":"U","NORAD_CAT_ID":49212,"ELEMENT_SET_NO":999,"REV_AT_EPOCH":18877,"BSTAR":2.6132e-5,"MEAN_MOTION_DOT":2.3e-7,"MEAN_MOTION_DDOT":0},{"OBJECT_NAME":"ONEWEB-0348","OBJECT_ID":"2021-083AD","EPOCH":"2025-08-08T14:48:59.699232","MEAN_MOTION":13.20774054,"ECCENTRICITY":0.0001756,"INCLINATION":87.9294,"RA_OF_ASC_NODE":336.7292,"ARG_OF_PERICENTER":118.0606,"MEAN_ANOMALY":242.0705,"EPHEMERIS_TYPE":0,"CLASSIFICATION_TYPE":"U","NORAD_CAT_ID":49213,"ELEMENT_SET_NO":999,"REV_AT_EPOCH":19555,"BSTAR":4.2998e-5,"MEAN_MOTION_DOT":3.0e-7,"MEAN_MOTION_DDOT":0},{"OBJECT_NAME":"ONEWEB-0350","OBJECT_ID":"2021-083AE","EPOCH":"2025-08-08T11:42:29.797632","MEAN_MOTION":13.13469741,"ECCENTRICITY":0.0001499,"INCLINATION":87.8977,"RA_OF_ASC_NODE":22.3397,"ARG_OF_PERICENTER":99.5769,"MEAN_ANOMALY":260.553,"EPHEMERIS_TYPE":0,"CLASSIFICATION_TYPE":"U","NORAD_CAT_ID":49214,"ELEMENT_SET_NO":999,"REV_AT_EPOCH":18988,"BSTAR":-0.00048882,"MEAN_MOTION_DOT":-1.66e-6,"MEAN_MOTION_DDOT":0},{"OBJECT_NAME":"ONEWEB-0351","OBJECT_ID":"2021-083AF","EPOCH":"2025-08-08T14:39:40.829472","MEAN_MOTION":13.20769471,"ECCENTRICITY":0.0001707,"INCLINATION":87.9301,"RA_OF_ASC_NODE":336.7137,"ARG_OF_PERICENTER":70.1418,"MEAN_ANOMALY":289.9899,"EPHEMERIS_TYPE":0,"CLASSIFICATION_TYPE":"U","NORAD_CAT_ID":49215,"ELEMENT_SET_NO":999,"REV_AT_EPOCH":19551,"BSTAR":-2.8442e-6,"MEAN_MOTION_DOT":1.2e-7,"MEAN_MOTION_DDOT":0},{"OBJECT_NAME":"ONEWEB-0352","OBJECT_ID":"2021-083AG","EPOCH":"2025-08-08T11:14:27.598272","MEAN_MOTION":13.13470444,"ECCENTRICITY":0.0001725,"INCLINATION":87.8971,"RA_OF_ASC_NODE":22.3843,"ARG_OF_PERICENTER":78.2543,"MEAN_ANOMALY":281.878,"EPHEMERIS_TYPE":0,"CLASSIFICATION_TYPE":"U","NORAD_CAT_ID":49216,"ELEMENT_SET_NO":999,"REV_AT_EPOCH":18997,"BSTAR":-0.00041821,"MEAN_MOTION_DOT":-1.4e-6,"MEAN_MOTION_DDOT":0},{"OBJECT_NAME":"ONEWEB-0354","OBJECT_ID":"2021-083AH","EPOCH":"2025-08-08T13:27:11.837952","MEAN_MOTION":13.20771695,"ECCENTRICITY":0.0001677,"INCLINATION":87.9299,"RA_OF_ASC_NODE":336.7226,"ARG_OF_PERICENTER":105.2724,"MEAN_ANOMALY":254.8595,"EPHEMERIS_TYPE":0,"CLASSIFICATION_TYPE":"U","NORAD_CAT_ID":49217,"ELEMENT_SET_NO":999,"REV_AT_EPOCH":19554,"BSTAR":-5.4762e-6,"MEAN_MOTION_DOT":1.1e-7,"MEAN_MOTION_DDOT":0},{"OBJECT_NAME":"ONEWEB-0355","OBJECT_ID":"2021-083AJ","EPOCH":"2025-08-08T04:37:18.605280","MEAN_MOTION":13.13471822,"ECCENTRICITY":0.000157,"INCLINATION":87.898,"RA_OF_ASC_NODE":22.4393,"ARG_OF_PERICENTER":89.2579,"MEAN_ANOMALY":270.873,"EPHEMERIS_TYPE":0,"CLASSIFICATION_TYPE":"U","NORAD_CAT_ID":49218,"ELEMENT_SET_NO":999,"REV_AT_EPOCH":18981,"BSTAR":0.00011137,"MEAN_MOTION_DOT":5.3e-7,"MEAN_MOTION_DDOT":0},{"OBJECT_NAME":"ONEWEB-0357","OBJECT_ID":"2021-083AK","EPOCH":"2025-08-08T13:22:39.242496","MEAN_MOTION":13.20772284,"ECCENTRICITY":0.0001759,"INCLINATION":87.929,"RA_OF_ASC_NODE":336.7265,"ARG_OF_PERICENTER":94.6427,"MEAN_ANOMALY":265.4907,"EPHEMERIS_TYPE":0,"CLASSIFICATION_TYPE":"U","NORAD_CAT_ID":49219,"ELEMENT_SET_NO":999,"REV_AT_EPOCH":19554,"BSTAR":4.8089e-6,"MEAN_MOTION_DOT":1.5e-7,"MEAN_MOTION_DDOT":0},{"OBJECT_NAME":"ONEWEB-0332","OBJECT_ID":"2021-090A","EPOCH":"2025-08-08T14:28:08.670432","MEAN_MOTION":13.14504794,"ECCENTRICITY":0.0001948,"INCLINATION":87.9079,"RA_OF_ASC_NODE":351.9249,"ARG_OF_PERICENTER":90.4932,"MEAN_ANOMALY":269.6421,"EPHEMERIS_TYPE":0,"CLASSIFICATION_TYPE":"U","NORAD_CAT_ID":49279,"ELEMENT_SET_NO":999,"REV_AT_EPOCH":18651,"BSTAR":0.00043686,"MEAN_MOTION_DOT":1.75e-6,"MEAN_MOTION_DDOT":0},{"OBJECT_NAME":"ONEWEB-0347","OBJECT_ID":"2021-090B","EPOCH":"2025-08-08T14:58:06.041856","MEAN_MOTION":13.20772399,"ECCENTRICITY":0.0002228,"INCLINATION":87.9299,"RA_OF_ASC_NODE":336.7243,"ARG_OF_PERICENTER":94.4802,"MEAN_ANOMALY":265.6586,"EPHEMERIS_TYPE":0,"CLASSIFICATION_TYPE":"U","NORAD_CAT_ID":49280,"ELEMENT_SET_NO":999,"REV_AT_EPOCH":18978,"BSTAR":0.00011005,"MEAN_MOTION_DOT":5.8e-7,"MEAN_MOTION_DDOT":0},{"OBJECT_NAME":"ONEWEB-0349","OBJECT_ID":"2021-090C","EPOCH":"2025-08-08T13:54:29.088576","MEAN_MOTION":13.20771823,"ECCENTRICITY":0.0001811,"INCLINATION":87.9289,"RA_OF_ASC_NODE":336.7369,"ARG_OF_PERICENTER":96.9283,"MEAN_ANOMALY":263.2056,"EPHEMERIS_TYPE":0,"CLASSIFICATION_TYPE":"U","NORAD_CAT_ID":49281,"ELEMENT_SET_NO":999,"REV_AT_EPOCH":18856,"BSTAR":0.00027086,"MEAN_MOTION_DOT":1.23e-6,"MEAN_MOTION_DDOT":0},{"OBJECT_NAME":"ONEWEB-0353","OBJECT_ID":"2021-090D","EPOCH":"2025-08-08T14:16:44.335776","MEAN_MOTION":13.14501725,"ECCENTRICITY":0.0002027,"INCLINATION":87.908,"RA_OF_ASC_NODE":351.9134,"ARG_OF_PERICENTER":92.1395,"MEAN_ANOMALY":267.9966,"EPHEMERIS_TYPE":0,"CLASSIFICATION_TYPE":"U","NORAD_CAT_ID":49282,"ELEMENT_SET_NO":999,"REV_AT_EPOCH":18651,"BSTAR":0.00060162,"MEAN_MOTION_DOT":2.36e-6,"MEAN_MOTION_DDOT":0},{"OBJECT_NAME":"ONEWEB-0356","OBJECT_ID":"2021-090E","EPOCH":"2025-08-08T13:52:11.731584","MEAN_MOTION":13.20772121,"ECCENTRICITY":0.0002639,"INCLINATION":87.9291,"RA_OF_ASC_NODE":336.7281,"ARG_OF_PERICENTER":112.7125,"MEAN_ANOMALY":247.4287,"EPHEMERIS_TYPE":0,"CLASSIFICATION_TYPE":"U","NORAD_CAT_ID":49283,"ELEMENT_SET_NO":999,"REV_AT_EPOCH":18856,"BSTAR":0.0002869,"MEAN_MOTION_DOT":1.3e-6,"MEAN_MOTION_DDOT":0}]
